ONEWEB-0371             
1 49297U 21090U   25179.58032772 -.00000009  00000+0 -55430-4 0  9992
2 49297  87.9214  15.2588 0001944  88.5987 271.5368 13.19723764179817
ONEWEB-0372             
1 49298U 21090V   25179.45287273  .00000017  00000+0  89231-5 0  9991
2 49298  87.9262 344.9059 0001956  97.4115 262.7241 13.20769913183142
ONEWEB-0373             
1 49299U 21090W   25179.47984080  .00000078  00000+0  16098-3 0  9990
2 49299  87.9264 344.9111 0001643  98.8460 261.2860 13.20772964184338
ONEWEB-0374             
1 49300U 21090X   25179.55161040  .00000051  00000+0  10260-3 0  9991
2 49300  87.9034   0.0569 0001318 105.6589 254.4686 13.14502340181105
ONEWEB-0375             
1 49301U 21090Y   25179.46721369  .00000008  00000+0 -13235-4 0  9997
2 49301  87.9265 344.8920 0001205  90.7353 269.3918 13.20773626183839
ONEWEB-0376             
1 49302U 21090Z   25179.57875003 -.00000057  00000+0 -17449-3 0  9990
2 49302  87.9207  15.2430 0002031  93.6173 266.5193 13.19726844179816
ONEWEB-0377             
1 49303U 21090AA  25179.52892569  .00000024  00000+0  27543-4 0  9991
2 49303  87.9265 344.8726 0001811  85.6944 274.4396 13.20772475183835
ONEWEB-0378             
1 49304U 21090AB  25179.47524760  .00000052  00000+0  96356-4 0  9990
2 49304  87.9267 344.8909 0001674  95.7462 264.3863 13.20769839183090
